{
    "links": {
        "self": "http://www.neowsapp.com/rest/v1/neo/3771475?api_key=iIulBulltgU6a56xZRHN4H3l9WmuAYTsLGpBGhQ2"
    },
    "id": "3771475",
    "neo_reference_id": "3771475",
    "name": "(2017 EO22)",
    "designation": "2017 EO22",
    "nasa_jpl_url": "http://ssd.jpl.nasa.gov/sbdb.cgi?sstr=3771475",
    "absolute_magnitude_h": 22.1,
    "estimated_diameter": {
        "kilometers": {
            "estimated_diameter_min": 0.1010543415,
            "estimated_diameter_max": 0.2259643771
        },
        "meters": {
            "estimated_diameter_min": 101.054341542,
            "estimated_diameter_max": 225.9643771094
        },
        "miles": {
            "estimated_diameter_min": 0.0627922373,
            "estimated_diameter_max": 0.140407711
        },
        "feet": {
            "estimated_diameter_min": 331.5431259047,
            "estimated_diameter_max": 741.3529669956
        }
    },
    "is_potentially_hazardous_asteroid": false,
    "close_approach_data": [
        {
            "close_approach_date": "2017-03-03",
            "close_approach_date_full": "2017-Mar-03 17:48",
            "epoch_date_close_approach": 1488563280000,
            "relative_velocity": {
                "kilometers_per_second": "9.1470859816",
                "kilometers_per_hour": "32929.5095339212",
                "miles_per_hour": "20461.1166323412"
            },
            "miss_distance": {
                "astronomical": "0.3306570145",
                "lunar": "128.6255786405",
                "kilometers": "49465585.069759115",
                "miles": "30736489.292401187"
            },
            "orbiting_body": "Earth"
        }
    ],
    "orbital_data": {
        "orbit_id": "6",
        "orbit_determination_date": "2017-04-13 06:13:11",
        "first_observation_date": "2017-03-08",
        "last_observation_date": "2017-04-03",
        "data_arc_in_days": 26,
        "observations_used": 38,
        "orbit_uncertainty": "6",
        "minimum_orbit_intersection": ".329518",
        "jupiter_tisserand_invariant": "3.828",
        "epoch_osculation": "2459000.5",
        "eccentricity": ".32465525951669",
        "semi_major_axis": "1.899515979953774",
        "inclination": "17.78136084097014",
        "ascending_node_longitude": "357.6009706516618",
        "orbital_period": "956.231077327867",
        "perihelion_distance": "1.282828126525781",
        "perihelion_argument": "141.685292015319",
        "aphelion_distance": "2.516203833381766",
        "perihelion_time": "2458740.690900695208",
        "mean_anomaly": "97.81241999694562",
        "mean_motion": ".3764780381390651",
        "equinox": "J2000",
        "orbit_class": {
            "orbit_class_type": "AMO",
            "orbit_class_description": "Near-Earth asteroid orbits similar to that of 1221 Amor",
            "orbit_class_range": "1.017 AU < q (perihelion) < 1.3 AU"
        }
    },
    "is_sentry_object": false
}